IRIDIUM 126             
1 42809U 17039G   25087.32781280  .00000407  00000+0  13829-3 0  9992
2 42809  86.4044 179.9738 0002394  89.1752 270.9718 14.34218448406042
IRIDIUM 124             
1 42810U 17039H   25087.46308090  .00001050  00000+0  30625-3 0  9991
2 42810  86.4455 116.7363 0002006  90.2197 269.9233 14.43275219410829
IRIDIUM 128             
1 42811U 17039J   25087.38831695  .00000757  00000+0  26318-3 0  9992
2 42811  86.4013 211.4068 0001771  97.7655 262.3742 14.34219167406089
IRIDIUM 121             
1 42812U 17039K   25087.48637645  .00000581  00000+0  20041-3 0  9995
2 42812  86.4047 179.9317 0002298 104.4584 255.6866 14.34217608405948
IRIDIUM 133             
1 42955U 17061A   25087.42003397  .00000820  00000+0  28578-3 0  9992
2 42955  86.4020 211.5001 0002022  94.6496 265.4931 14.34217135390880
IRIDIUM 100             
1 42956U 17061B   25087.41368419  .00000410  00000+0  13921-3 0  9992
2 42956  86.4016 211.4321 0001990  91.4998 268.6425 14.34214590390880
IRIDIUM 122             
1 42957U 17061C   25087.38197599  .00000016  00000+0 -15024-5 0  9999
2 42957  86.4013 211.4438 0001937  89.0375 271.1042 14.34218506390885
IRIDIUM 129             
1 42958U 17061D   25087.40734551  .00000289  00000+0  96071-4 0  9999
2 42958  86.4016 211.4955 0002504  98.2404 261.9076 14.34217182390905
